{
    "links": {
        "self": "http://www.neowsapp.com/rest/v1/neo/3831211?api_key=iIulBulltgU6a56xZRHN4H3l9WmuAYTsLGpBGhQ2"
    },
    "id": "3831211",
    "neo_reference_id": "3831211",
    "name": "(2018 TY1)",
    "designation": "2018 TY1",
    "nasa_jpl_url": "http://ssd.jpl.nasa.gov/sbdb.cgi?sstr=3831211",
    "absolute_magnitude_h": 26.2,
    "estimated_diameter": {
        "kilometers": {
            "estimated_diameter_min": 0.0152951935,
            "estimated_diameter_max": 0.0342010925
        },
        "meters": {
            "estimated_diameter_min": 15.2951935344,
            "estimated_diameter_max": 34.201092472
        },
        "miles": {
            "estimated_diameter_min": 0.0095039897,
            "estimated_diameter_max": 0.021251567
        },
        "feet": {
            "estimated_diameter_min": 50.1810827555,
            "estimated_diameter_max": 112.2083122258
        }
    },
    "is_potentially_hazardous_asteroid": false,
    "close_approach_data": [
        {
            "close_approach_date": "2018-10-08",
            "close_approach_date_full": "2018-Oct-08 01:02",
            "epoch_date_close_approach": 1538960520000,
            "relative_velocity": {
                "kilometers_per_second": "10.5850736986",
                "kilometers_per_hour": "38106.2653150723",
                "miles_per_hour": "23677.7513564681"
            },
            "miss_distance": {
                "astronomical": "0.0208553242",
                "lunar": "8.1127211138",
                "kilometers": "3119912.078479454",
                "miles": "1938623.4704023052"
            },
            "orbiting_body": "Earth"
        }
    ],
    "orbital_data": {
        "orbit_id": "2",
        "orbit_determination_date": "2018-10-10 06:26:00",
        "first_observation_date": "2018-10-05",
        "last_observation_date": "2018-10-10",
        "data_arc_in_days": 5,
        "observations_used": 52,
        "orbit_uncertainty": "7",
        "minimum_orbit_intersection": ".0143308",
        "jupiter_tisserand_invariant": "3.191",
        "epoch_osculation": "2459000.5",
        "eccentricity": ".6066221832227026",
        "semi_major_axis": "2.469491935926924",
        "inclination": "8.107297137023625",
        "ascending_node_longitude": "193.3109854051019",
        "orbital_period": "1417.456844481938",
        "perihelion_distance": ".9714433463040751",
        "perihelion_argument": "209.4142383226683",
        "aphelion_distance": "3.967540525549773",
        "perihelion_time": "2458421.226205792931",
        "mean_anomaly": "147.1216331744922",
        "mean_motion": ".2539759862188787",
        "equinox": "J2000",
        "orbit_class": {
            "orbit_class_type": "APO",
            "orbit_class_description": "Near-Earth asteroid orbits which cross the Earth’s orbit similar to that of 1862 Apollo",
            "orbit_class_range": "a (semi-major axis) > 1.0 AU; q (perihelion) < 1.017 AU"
        }
    },
    "is_sentry_object": false
}